OBJECT_NAME,OBJECT_ID,EPOCH,MEAN_MOTION,ECCENTRICITY,INCLINATION,RA_OF_ASC_NODE,ARG_OF_PERICENTER,MEAN_ANOMALY,EPHEMERIS_TYPE,CLASSIFICATION_TYPE,NORAD_CAT_ID,ELEMENT_SET_NO,REV_AT_EPOCH,BSTAR,MEAN_MOTION_DOT,MEAN_MOTION_DDOT
ONEWEB-0432,2021-132AK,2024-08-14T14:58:34.529664,13.18685890,.0002017,87.9113,109.1494,92.0851,268.0512,0,U,50502,999,13307,-.56362E-3,-.209E-5,0
ONEWEB-0440,2021-132AL,2024-08-14T14:40:21.967104,13.18685279,.0001797,87.9116,109.1425,59.8142,300.3168,0,U,50503,999,13306,-.63096E-3,-.236E-5,0
ONEWEB-0450,2021-132AM,2024-08-14T14:31:28.142112,13.18687126,.0001457,87.9115,109.1723,81.0864,279.0433,0,U,50504,999,13309,.25935E-3,.115E-5,0
TIANHUI 4A,2021-134A,2024-08-13T19:45:17.192160,15.33458373,.001089,88.9697,57.0954,173.5866,186.5528,0,U,50572,999,14635,.39387E-3,.12784E-3,0
TIANHUI 4B,2021-134B,2024-08-13T19:45:39.870432,15.33462605,.0010136,88.9696,57.0942,177.3761,182.7547,0,U,50573,999,14632,.39406E-3,.12788E-3,0
TJS-9,2021-135A,2024-08-13T20:30:58.168224,1.00274050,.0004899,0.0284,116.5387,41.3164,249.8579,0,U,50574,999,969,0,-.288E-5,0
STARLINK-3321,2022-001A,2024-08-14T06:35:10.685472,15.08824706,.0001503,53.2167,218.7914,98.9053,261.2109,0,U,50803,999,14399,-.17746E-3,-.311E-4,0
STARLINK-3333,2022-001C,2024-08-14T08:54:16.658496,15.08831875,.000138,53.2152,208.3598,96.7162,263.3987,0,U,50805,999,14414,-.12599E-3,-.2292E-4,0
STARLINK-3335,2022-001D,2024-08-14T08:48:58.681440,15.08838656,.0001268,53.2142,208.3762,96.9886,263.1251,0,U,50806,999,14414,-.61913E-3,-.10127E-3,0
STARLINK-3355,2022-001F,2024-08-14T08:38:22.731648,15.08829958,.0001345,53.2149,208.4108,85.7892,274.3254,0,U,50808,999,14414,.46928E-3,.7187E-4,0
STARLINK-3232,2022-001G,2024-08-14T03:57:31.793184,15.08822886,.0001497,53.2153,209.2822,111.5867,248.5285,0,U,50809,999,14411,-.17287E-3,-.3037E-4,0
STARLINK-3347,2022-001J,2024-08-14T08:27:48.335328,15.08826826,.0001448,53.2156,208.4797,94.6901,265.4256,0,U,50811,999,14414,-.68397E-4,-.1376E-4,0
STARLINK-3338,2022-001K,2024-08-14T09:20:47.790528,15.08830180,.0001486,53.2164,208.3835,95.5926,264.5236,0,U,50812,999,14414,-.96282E-4,-.182E-4,0
STARLINK-3349,2022-001L,2024-08-14T06:36:31.241376,15.08809432,.0001259,53.2136,208.7415,98.4382,261.6752,0,U,50813,999,14413,.16311E-2,.25745E-3,0
STARLINK-3324,2022-001M,2024-08-14T09:24:45.062208,15.08829330,.0001554,53.2152,218.2612,93.9553,266.1617,0,U,50814,999,14401,-.12408E-3,-.2262E-4,0
STARLINK-3234,2022-001N,2024-08-14T06:29:52.824192,15.08820852,.0001538,53.2157,218.8058,94.2920,265.8248,0,U,50815,999,14399,.68788E-3,.10671E-3,0
STARLINK-3341,2022-001Q,2024-08-14T09:35:21.736032,15.08822621,.0001362,53.2162,218.2259,94.4951,265.6196,0,U,50817,999,14401,-.1054E-3,-.1964E-4,0
STARLINK-3336,2022-001R,2024-08-14T09:08:51.631296,15.08834073,.0001566,53.2169,218.3143,91.4801,268.6370,0,U,50818,999,14400,-.6528E-4,-.1327E-4,0
STARLINK-3327,2022-001S,2024-08-14T09:19:26.990112,15.08835745,.0001242,53.2154,218.2805,87.2766,272.8368,0,U,50819,999,14401,.71004E-5,-.175E-5,0
STARLINK-3339,2022-001T,2024-08-14T08:52:58.889856,15.08821966,.0001495,53.2147,218.3636,84.9766,275.1397,0,U,50820,999,14400,.16949E-4,-.18E-6,0
STARLINK-3346,2022-001U,2024-08-14T05:05:04.174368,15.08816749,.0001458,53.2154,218.9568,114.6519,245.4625,0,U,50821,999,14398,.45762E-3,.6998E-4,0
STARLINK-3334,2022-001W,2024-08-14T09:30:03.559392,15.08819853,.0001343,53.2155,218.2457,90.6455,269.4691,0,U,50823,999,14401,.22712E-3,.3327E-4,0
STARLINK-3332,2022-001Y,2024-08-14T04:01:30.057600,15.08824762,.0001557,53.2162,219.2740,87.5825,272.5345,0,U,50825,999,14397,-.22875E-3,-.3925E-4,0
STARLINK-3337,2022-001Z,2024-08-14T14:03:39.759840,15.61276524,.0008286,53.2030,186.2602,113.6776,246.5109,0,U,50826,999,14448,.79987E-2,.760014E-2,0
STARLINK-3329,2022-001AA,2024-08-14T09:03:33.569568,15.08824972,.000181,53.2161,218.3301,95.1907,264.9292,0,U,50827,999,14400,-.22836E-3,-.3919E-4,0
