ONEWEB-0432             
1 50502U 21132AK  24227.62401076 -.00000209  00000+0 -56362-3 0  9991
2 50502  87.9113 109.1494 0002017  92.0851 268.0512 13.18685890133073
ONEWEB-0440             
1 50503U 21132AL  24227.61136536 -.00000236  00000+0 -63096-3 0  9999
2 50503  87.9116 109.1425 0001797  59.8142 300.3168 13.18685279134359
ONEWEB-0450             
1 50504U 21132AM  24227.60518683  .00000115  00000+0  25935-3 0  9990
2 50504  87.9115 109.1723 0001457  81.0864 279.0433 13.18687126134384
TIANHUI 4A              
1 50572U 21134A   24226.82311565  .00012784  00000+0  39387-3 0  9991
2 50572  88.9697  57.0954 0010890 173.5866 186.5528 15.33458373146358
TIANHUI 4B              
1 50573U 21134B   24226.82337813  .00012788  00000+0  39406-3 0  9992
2 50573  88.9696  57.0942 0010136 177.3761 182.7547 15.33462605146323
TJS-9                   
1 50574U 21135A   24226.85483991 -.00000288  00000+0  00000+0 0  9993
2 50574   0.0284 116.5387 0004899  41.3164 249.8579  1.00274050  9694
STARLINK-3321           
1 50803U 22001A   24227.27442923 -.00003110  00000+0 -17746-3 0  9995
2 50803  53.2167 218.7914 0001503  98.9053 261.2109 15.08824706145267
STARLINK-3333           
1 50805U 22001C   24227.37102614 -.00002292  00000+0 -12599-3 0  9999
2 50805  53.2152 208.3598 0001380  96.7162 263.3987 15.08831875144144
STARLINK-3335           
1 50806U 22001D   24227.36734585 -.00010127  00000+0 -61913-3 0  9997
2 50806  53.2142 208.3762 0001268  96.9886 263.1251 15.08838656144143
STARLINK-3355           
1 50808U 22001F   24227.35998532  .00007187  00000+0  46928-3 0  9991
2 50808  53.2149 208.4108 0001345  85.7892 274.3254 15.08829958144148
STARLINK-3232           
1 50809U 22001G   24227.16495131 -.00003037  00000+0 -17287-3 0  9996
2 50809  53.2153 209.2822 0001497 111.5867 248.5285 15.08822886144111
STARLINK-3347           
1 50811U 22001J   24227.35264277 -.00001376  00000+0 -68397-4 0  9998
2 50811  53.2156 208.4797 0001448  94.6901 265.4256 15.08826826144142
STARLINK-3338           
1 50812U 22001K   24227.38944202 -.00001820  00000+0 -96282-4 0  9993
2 50812  53.2164 208.3835 0001486  95.5926 264.5236 15.08830180144149
STARLINK-3349           
1 50813U 22001L   24227.27536159  .00025745  00000+0  16311-2 0  9993
2 50813  53.2136 208.7415 0001259  98.4382 261.6752 15.08809432144139
STARLINK-3324           
1 50814U 22001M   24227.39218822 -.00002262  00000+0 -12408-3 0  9996
2 50814  53.2152 218.2612 0001554  93.9553 266.1617 15.08829330144017
STARLINK-3234           
1 50815U 22001N   24227.27075028  .00010671  00000+0  68788-3 0  9996
2 50815  53.2157 218.8058 0001538  94.2920 265.8248 15.08820852143999
STARLINK-3341           
1 50817U 22001Q   24227.39955713 -.00001964  00000+0 -10540-3 0  9999
2 50817  53.2162 218.2259 0001362  94.4951 265.6196 15.08822621144015
STARLINK-3336           
1 50818U 22001R   24227.38115314 -.00001327  00000+0 -65280-4 0  9999
2 50818  53.2169 218.3143 0001566  91.4801 268.6370 15.08834073144003
STARLINK-3327           
1 50819U 22001S   24227.38850683 -.00000175  00000+0  71004-5 0  9996
2 50819  53.2154 218.2805 0001242  87.2766 272.8368 15.08835745144018
STARLINK-3339           
1 50820U 22001T   24227.37012604 -.00000018  00000+0  16949-4 0  9992
2 50820  53.2147 218.3636 0001495  84.9766 275.1397 15.08821966144006
STARLINK-3346           
1 50821U 22001U   24227.21185387  .00006998  00000+0  45762-3 0  9991
2 50821  53.2154 218.9568 0001458 114.6519 245.4625 15.08816749143984
STARLINK-3334           
1 50823U 22001W   24227.39587453  .00003327  00000+0  22712-3 0  9995
2 50823  53.2155 218.2457 0001343  90.6455 269.4691 15.08819853144015
STARLINK-3332           
1 50825U 22001Y   24227.16770900 -.00003925  00000+0 -22875-3 0  9999
2 50825  53.2162 219.2740 0001557  87.5825 272.5345 15.08824762143974
STARLINK-3337           
1 50826U 22001Z   24227.58587685  .00760014  00000+0  79987-2 0  9994
2 50826  53.2030 186.2602 0008286 113.6776 246.5109 15.61276524145765
STARLINK-3329           
1 50827U 22001AA  24227.37747187 -.00003919  00000+0 -22836-3 0  9995
2 50827  53.2161 218.3301 0001810  95.1907 264.9292 15.08824972144000
